[
    {
        "Altitude(m)": 571642.8172097922,
        "Argument of Periapsis(deg)": 0.026491964442854003,
        "Eccentricity": 0.0,
        "Inclination(deg)": 53.0,
        "Latitude(deg)": -52.629066470447654,
        "Longitude(deg)": -132.07258976915554,
        "Mean Anomaly(deg)": 276.73007147031035,
        "RAAN(deg)": 49.96057347411207,
        "Satellite Name": "Starlink Shell 1 234",
        "Satellite Number": 234,
        "Semi-Major Axis(m)": 6931778.249405717,
        "Time(s)": 760
    },
    {
        "Altitude(m)": 571603.8307907034,
        "Argument of Periapsis(deg)": 0.02684054292236524,
        "Eccentricity": 0.0,
        "Inclination(deg)": 53.0,
        "Latitude(deg)": -52.52856715216911,
        "Longitude(deg)": -131.10202404882153,
        "Mean Anomaly(deg)": 277.35690267386707,
        "RAAN(deg)": 49.96005470403459,
        "Satellite Name": "Starlink Shell 1 234",
        "Satellite Number": 234,
        "Semi-Major Axis(m)": 6931778.249405717,
        "Time(s)": 770
    },
    {
        "Altitude(m)": 571561.4591662713,
        "Argument of Periapsis(deg)": 0.027189121401876473,
        "Eccentricity": 0.0,
        "Inclination(deg)": 53.0,
        "Latitude(deg)": -52.419460348923174,
        "Longitude(deg)": -130.1362554520154,
        "Mean Anomaly(deg)": 277.9837338774238,
        "RAAN(deg)": 49.95953593395713,
        "Satellite Name": "Starlink Shell 1 234",
        "Satellite Number": 234,
        "Semi-Major Axis(m)": 6931778.249405717,
        "Time(s)": 780
    },
    {
        "Altitude(m)": 571515.7192161734,
        "Argument of Periapsis(deg)": 0.02753769988138771,
        "Eccentricity": 0.0,
        "Inclination(deg)": 53.0,
        "Latitude(deg)": -52.30182139887782,
        "Longitude(deg)": -129.1756299214094,
        "Mean Anomaly(deg)": 278.61056508098056,
        "RAAN(deg)": 49.95901716387965,
        "Satellite Name": "Starlink Shell 1 234",
        "Satellite Number": 234,
        "Semi-Major Axis(m)": 6931778.249405717,
        "Time(s)": 790
    },
    {
        "Altitude(m)": 571466.6291610367,
        "Argument of Periapsis(deg)": 0.02788627836089895,
        "Eccentricity": 0.0,
        "Inclination(deg)": 53.0,
        "Latitude(deg)": -52.175730564953874,
        "Longitude(deg)": -128.22048022576396,
        "Mean Anomaly(deg)": 279.2373962845372,
        "RAAN(deg)": 49.958498393802174,
        "Satellite Name": "Starlink Shell 1 234",
        "Satellite Number": 234,
        "Semi-Major Axis(m)": 6931778.249405717,
        "Time(s)": 800
    },
    {
        "Altitude(m)": 571414.2085545283,
        "Argument of Periapsis(deg)": 0.02823485684041019,
        "Eccentricity": 0.0,
        "Inclination(deg)": 53.0,
        "Latitude(deg)": -52.04127278010753,
        "Longitude(deg)": -127.27112484580984,
        "Mean Anomaly(deg)": 279.86422748809395,
        "RAAN(deg)": 49.95797962372471,
        "Satellite Name": "Starlink Shell 1 234",
        "Satellite Number": 234,
        "Semi-Major Axis(m)": 6931778.249405717,
        "Time(s)": 810
    },
    {
        "Altitude(m)": 571358.4782749043,
        "Argument of Periapsis(deg)": 0.028583435319921423,
        "Eccentricity": 0.0,
        "Inclination(deg)": 53.0,
        "Latitude(deg)": -51.898537383940855,
        "Longitude(deg)": -126.32786694627443,
        "Mean Anomaly(deg)": 280.49105869165066,
        "RAAN(deg)": 49.957460853647234,
        "Satellite Name": "Starlink Shell 1 234",
        "Satellite Number": 234,
        "Semi-Major Axis(m)": 6931778.249405717,
        "Time(s)": 820
    },
    {
        "Altitude(m)": 571299.4605159708,
        "Argument of Periapsis(deg)": 0.028932013799432665,
        "Eccentricity": 0.0,
        "Inclination(deg)": 53.0,
        "Latitude(deg)": -51.747617852257264,
        "Longitude(deg)": -125.39099494586735,
        "Mean Anomaly(deg)": 281.1178898952074,
        "RAAN(deg)": 49.95694208356976,
        "Satellite Name": "Starlink Shell 1 234",
        "Satellite Number": 234,
        "Semi-Major Axis(m)": 6931778.249405717,
        "Time(s)": 830
    },
    {
        "Altitude(m)": 571237.1787774613,
        "Argument of Periapsis(deg)": 0.029280592278943897,
        "Eccentricity": 0.0,
        "Inclination(deg)": 53.0,
        "Latitude(deg)": -51.588611521372364,
        "Longitude(deg)": -124.46078165939784,
        "Mean Anomaly(deg)": 281.7447210987641,
        "RAAN(deg)": 49.956423313492294,
        "Satellite Name": "Starlink Shell 1 234",
        "Satellite Number": 234,
        "Semi-Major Axis(m)": 6931778.249405717,
        "Time(s)": 840
    },
    {
        "Altitude(m)": 571171.6578548651,
        "Argument of Periapsis(deg)": 0.029629170758455132,
        "Eccentricity": 0.0,
        "Inclination(deg)": 53.0,
        "Latitude(deg)": -51.42161930887788,
        "Longitude(deg)": -123.53748352346375,
        "Mean Anomaly(deg)": 282.37155230232077,
        "RAAN(deg)": 49.95590454341481,
        "Satellite Name": "Starlink Shell 1 234",
        "Satellite Number": 234,
        "Semi-Major Axis(m)": 6931778.249405717,
        "Time(s)": 850
    },
    {
        "Altitude(m)": 571102.9238286609,
        "Argument of Periapsis(deg)": 0.02997774923796637,
        "Eccentricity": 0.0,
        "Inclination(deg)": 53.0,
        "Latitude(deg)": -51.24674543251125,
        "Longitude(deg)": -122.62134158461741,
        "Mean Anomaly(deg)": 282.99838350587754,
        "RAAN(deg)": 49.95538577333734,
        "Satellite Name": "Starlink Shell 1 234",
        "Satellite Number": 234,
        "Semi-Major Axis(m)": 6931778.249405717,
        "Time(s)": 860
    },
    {
        "Altitude(m)": 571031.0040530348,
        "Argument of Periapsis(deg)": 0.030326327717477602,
        "Eccentricity": 0.0,
        "Inclination(deg)": 53.0,
        "Latitude(deg)": -51.06409712871861,
        "Longitude(deg)": -121.7125800448603,
        "Mean Anomaly(deg)": 283.62521470943426,
        "RAAN(deg)": 49.954867003259864,
        "Satellite Name": "Starlink Shell 1 234",
        "Satellite Number": 234,
        "Semi-Major Axis(m)": 6931778.249405717,
        "Time(s)": 870
    },
    {
        "Altitude(m)": 570955.9271439924,
        "Argument of Periapsis(deg)": 0.030674906196988847,
        "Eccentricity": 0.0,
        "Inclination(deg)": 53.0,
        "Latitude(deg)": -50.87378437240829,
        "Longitude(deg)": -120.81140740410956,
        "Mean Anomaly(deg)": 284.2520459129909,
        "RAAN(deg)": 49.954348233182394,
        "Satellite Name": "Starlink Shell 1 234",
        "Satellite Number": 234,
        "Semi-Major Axis(m)": 6931778.249405717,
        "Time(s)": 880
    },
    {
        "Altitude(m)": 570877.7229669504,
        "Argument of Periapsis(deg)": 0.031023484676500086,
        "Eccentricity": 0.0,
        "Inclination(deg)": 53.0,
        "Latitude(deg)": -50.67591959930646,
        "Longitude(deg)": -119.91801599342328,
        "Mean Anomaly(deg)": 284.8788771165477,
        "RAAN(deg)": 49.953829463104924,
        "Satellite Name": "Starlink Shell 1 234",
        "Satellite Number": 234,
        "Semi-Major Axis(m)": 6931778.249405717,
        "Time(s)": 890
    },
    {
        "Altitude(m)": 570796.4226237651,
        "Argument of Periapsis(deg)": 0.03137206315601132,
        "Eccentricity": 0.0,
        "Inclination(deg)": 53.0,
        "Latitude(deg)": -50.470617432221275,
        "Longitude(deg)": -119.03258157577918,
        "Mean Anomaly(deg)": 285.50570832010436,
        "RAAN(deg)": 49.95331069302745,
        "Satellite Name": "Starlink Shell 1 234",
        "Satellite Number": 234,
        "Semi-Major Axis(m)": 6931778.249405717,
        "Time(s)": 900
    },
    {
        "Altitude(m)": 570712.0584392396,
        "Argument of Periapsis(deg)": 0.03172064163552255,
        "Eccentricity": 0.0,
        "Inclination(deg)": 53.0,
        "Latitude(deg)": -50.257994412412685,
        "Longitude(deg)": -118.15526452276242,
        "Mean Anomaly(deg)": 286.1325395236611,
        "RAAN(deg)": 49.95279192294998,
        "Satellite Name": "Starlink Shell 1 234",
        "Satellite Number": 234,
        "Semi-Major Axis(m)": 6931778.249405717,
        "Time(s)": 910
    },
    {
        "Altitude(m)": 570624.6639470726,
        "Argument of Periapsis(deg)": 0.0320692201150338,
        "Eccentricity": 0.0,
        "Inclination(deg)": 53.0,
        "Latitude(deg)": -50.03816873715765,
        "Longitude(deg)": -117.2862095366393,
        "Mean Anomaly(deg)": 286.75937072721786,
        "RAAN(deg)": 49.95227315287251,
        "Satellite Name": "Starlink Shell 1 234",
        "Satellite Number": 234,
        "Semi-Major Axis(m)": 6931778.249405717,
        "Time(s)": 920
    },
    {
        "Altitude(m)": 570534.2738752663,
        "Argument of Periapsis(deg)": 0.032417798594545036,
        "Eccentricity": 0.0,
        "Inclination(deg)": 53.0,
        "Latitude(deg)": -49.81126000448139,
        "Longitude(deg)": -116.42554542574534,
        "Mean Anomaly(deg)": 287.3862019307745,
        "RAAN(deg)": 49.95175438279503,
        "Satellite Name": "Starlink Shell 1 234",
        "Satellite Number": 234,
        "Semi-Major Axis(m)": 6931778.249405717,
        "Time(s)": 930
    },
    {
        "Altitude(m)": 570440.924131048,
        "Argument of Periapsis(deg)": 0.03276637707405627,
        "Eccentricity": 0.0,
        "Inclination(deg)": 53.0,
        "Latitude(deg)": -49.57738896590765,
        "Longitude(deg)": -115.5733864410025,
        "Mean Anomaly(deg)": 288.01303313433124,
        "RAAN(deg)": 49.951235612717554,
        "Satellite Name": "Starlink Shell 1 234",
        "Satellite Number": 234,
        "Semi-Major Axis(m)": 6931778.249405717,
        "Time(s)": 940
    }
]